APRIZESAT 2             
1 28366U 04025A   22198.36807469  .00000089  00000+0  42231-4 0  9993
2 28366  98.1622  65.9721 0106317 244.9699 114.0420 14.36827948946111
SAUDICOMSAT 1           
1 28369U 04025D   22198.39405365  .00000325  00000+0  89932-4 0  9990
2 28369  98.4418 160.2160 0034729  83.3714 277.1432 14.52813856956190
SAUDICOMSAT 2           
1 28370U 04025E   22198.46740590  .00000223  00000+0  71941-4 0  9990
2 28370  98.5336 159.3695 0056419 270.9147  88.5581 14.47713324952972
APRIZESAT 1             
1 28372U 04025G   22198.48564037  .00000171  00000+0  55895-4 0  9996
2 28372  98.4945 159.6054 0046147 182.7136 177.3814 14.49814417954454
NANOSAT-1               
1 28493U 04049B   22198.51293523  .00000661  00000+0  10827-3 0  9998
2 28493  98.1146 299.3284 0004369 179.6650 180.4561 14.74031933944300
SAUDICOMSAT 7           
1 31119U 07012C   22198.53340059  .00000529  00000+0  11233-3 0  9994
2 31119  98.1853 144.1091 0059780 358.2087   1.8891 14.62116021813107
SAUDICOMSAT 6           
1 31121U 07012E   22198.54865404  .00000421  00000+0  96327-4 0  9993
2 31121  98.2266 139.4150 0077547  98.8854 262.1135 14.58896418811338
SAUDICOMSAT 5           
1 31124U 07012H   22198.42796113  .00000477  00000+0  99281-4 0  9996
2 31124  98.1541 145.5745 0050224 304.4279  55.2182 14.63842725814046
SAUDICOMSAT 3           
1 31125U 07012J   22198.44942005  .00000477  00000+0  95805-4 0  9990
2 31125  98.1196 147.0670 0041643 249.1375 110.5367 14.65666445814971
SAUDICOMSAT 4           
1 31127U 07012L   22198.56860213  .00000521  00000+0  11355-3 0  9992
2 31127  98.2081 142.5172 0068751  45.9509 314.7325 14.60625533812275
APRIZESAT 4             
1 35684U 09041D   22198.46249116  .00000446  00000+0  66180-4 0  9993
2 35684  98.3101 213.1365 0045490 255.1168 104.5002 14.79676319699505
APRIZESAT 3             
1 35686U 09041F   22198.49244889  .00001004  00000+0  11068-3 0  9995
2 35686  98.1072 285.8400 0073486  88.3364 272.6268 14.87968797703070
AISSAT 1                
1 36797U 10035C   22198.46151518  .00001246  00000+0  14501-3 0  9990
2 36797  98.2391  23.4955 0012269  74.9824 285.2747 14.87157582650901
S-NET D                 
1 43186U 18014G   22198.48816771  .00002507  00000+0  21703-3 0  9999
2 43186  97.6562 103.6529 0010337 186.1999 173.9097 14.98001905243419
S-NET B                 
1 43187U 18014H   22198.55513468  .00002500  00000+0  21647-3 0  9995
2 43187  97.6559 103.6688 0010326 185.9412 174.1690 14.98000417243427
S-NET A                 
1 43188U 18014J   22198.55542501  .00002507  00000+0  21701-3 0  9994
2 43188  97.6563 103.7340 0010326 185.9399 174.1703 14.97999960243427
S-NET C                 
1 43189U 18014K   22198.55617765  .00002497  00000+0  21624-3 0  9992
2 43189  97.6559 103.6581 0010297 185.7554 174.3552 14.97998079241979
SALSAT                  
1 46495U 20068K   22198.48990899  .00001883  00000+0  13816-3 0  9993
2 46495  97.7308 139.8037 0016710 168.9496 191.2100 15.04621308 98701
